{"type": "FeatureCollection", "features": [ {"type": "Feature", "properties": {"norad_id": 66376, "name": "SHIYAN-32 01", "group": "last-30-days", "lat": -47.47545904985511, "lon": 161.55354607727088, "alt_km": 442.83204594827566, "timestamp": "2025-12-04T13:51:59.225783+00:00", "meta": {"OBJECT_NAME": "SHIYAN-32 01", "OBJECT_ID": "2025-255A", "EPOCH": "2025-12-04T07:56:11.971968", "MEAN_MOTION": 15.4234976, "ECCENTRICITY": 0.00134792, "INCLINATION": 52.9962, "RA_OF_ASC_NODE": 218.0482, "ARG_OF_PERICENTER": 16.1242, "MEAN_ANOMALY": 344.0188, "EPHEMERIS_TYPE": 0, "CLASSIFICATION_TYPE": "U", "NORAD_CAT_ID": 66376, "ELEMENT_SET_NO": 999, "REV_AT_EPOCH": 405, "BSTAR": 0.00089204363, "MEAN_MOTION_DOT": 0.00038972, "MEAN_MOTION_DDOT": 0}, "tle": {"line1": "1 66376U 25255A   25338.33069412  .00038972  00000+0  89204-3 0  9990", "line2": "2 66376  52.9962 218.0482 0013479  16.1242 344.0188 15.42349760  4056"}}, "geometry": {"type": "Point", "coordinates": [161.55354607727088, -47.47545904985511]}}, {"type": "Feature", "properties": {"norad_id": 66377, "name": "CZ-11 DEB", "group": "last-30-days", "lat": 3.3139871019045017, "lon": -140.76417913334228, "alt_km": 426.3168989567848, "timestamp": "2025-12-04T13:51:59.225793+00:00", "meta": {"OBJECT_NAME": "CZ-11 DEB", "OBJECT_ID": "2025-255B", "EPOCH": "2025-12-04T07:37:59.725632", "MEAN_MOTION": 15.43662808, "ECCENTRICITY": 0.00139159, "INCLINATION": 52.9957, "RA_OF_ASC_NODE": 217.9692, "ARG_OF_PERICENTER": 13.7634, "MEAN_ANOMALY": 346.3747, "EPHEMERIS_TYPE": 0, "CLASSIFICATION_TYPE": "U", "NORAD_CAT_ID": 66377, "ELEMENT_SET_NO": 999, "REV_AT_EPOCH": 391, "BSTAR": 0.0016544022, "MEAN_MOTION_DOT": 0.00076318, "MEAN_MOTION_DDOT": 0}, "tle": {"line1": "1 66377U 25255B   25338.31805238  .00076318  00000+0  16544-2 0  9995", "line2": "2 66377  52.9957 217.9692 0013915  13.7634 346.3747 15.43662808  3917"}}, "geometry": {"type": "Point", "coordinates": [-140.76417913334228, 3.3139871019045017]}}, {"type": "Feature", "properties": {"norad_id": 66378, "name": "SHIYAN-32 02", "group": "last-30-days", "lat": 27.326351790013828, "lon": -120.39002139101686, "alt_km": 422.4745890219074, "timestamp": "2025-12-04T13:51:59.225805+00:00", "meta": {"OBJECT_NAME": "SHIYAN-32 02", "OBJECT_ID": "2025-255C", "EPOCH": "2025-12-04T07:30:09.019296", "MEAN_MOTION": 15.44244956, "ECCENTRICITY": 0.00123227, "INCLINATION": 52.9953, "RA_OF_ASC_NODE": 217.9363, "ARG_OF_PERICENTER": 12.2799, "MEAN_ANOMALY": 347.8503, "EPHEMERIS_TYPE": 0, "CLASSIFICATION_TYPE": "U", "NORAD_CAT_ID": 66378, "ELEMENT_SET_NO": 999, "REV_AT_EPOCH": 391, "BSTAR": 0.0017300556, "MEAN_MOTION_DOT": 0.00081416, "MEAN_MOTION_DDOT": 0}, "tle": {"line1": "1 66378U 25255C   25338.31260439  .00081416  00000+0  17301-2 0  9991", "line2": "2 66378  52.9953 217.9363 0012322  12.2799 347.8503 15.44244956  3913"}}, "geometry": {"type": "Point", "coordinates": [-120.39002139101686, 27.326351790013828]}}, {"type": "Feature", "properties": {"norad_id": 66379, "name": "SHIYAN-32 03", "group": "last-30-days", "lat": -26.78133876780846, "lon": -165.56449243316672, "alt_km": 435.20509460642734, "timestamp": "2025-12-04T13:51:59.225816+00:00", "meta": {"OBJECT_NAME": "SHIYAN-32 03", "OBJECT_ID": "2025-255D", "EPOCH": "2025-12-04T06:14:25.539648", "MEAN_MOTION": 15.42690467, "ECCENTRICITY": 0.00155219, "INCLINATION": 52.9966, "RA_OF_ASC_NODE": 218.3203, "ARG_OF_PERICENTER": 16.8469, "MEAN_ANOMALY": 343.3048, "EPHEMERIS_TYPE": 0, "CLASSIFICATION_TYPE": "U", "NORAD_CAT_ID": 66379, "ELEMENT_SET_NO": 999, "REV_AT_EPOCH": 392, "BSTAR": 0.00078874941, "MEAN_MOTION_DOT": 0.00034827, "MEAN_MOTION_DDOT": 0}, "tle": {"line1": "1 66379U 25255D   25338.26001782  .00034827  00000+0  78875-3 0  9998", "line2": "2 66379  52.9966 218.3203 0015521  16.8469 343.3048 15.42690467  3920"}}, "geometry": {"type": "Point", "coordinates": [-165.56449243316672, -26.78133876780846]}}, {"type": "Feature", "properties": {"norad_id": 66380, "name": "STARLINK-35139", "group": "last-30-days", "lat": -51.38953797655158, "lon": -167.02786890826223, "alt_km": 453.4095245905037, "timestamp": "2025-12-04T13:51:59.225826+00:00", "meta": {"OBJECT_NAME": "STARLINK-35139", "OBJECT_ID": "2025-257A", "EPOCH": "2025-12-04T08:00:01.999872", "MEAN_MOTION": 15.39619757, "ECCENTRICITY": 0.00018216, "INCLINATION": 53.1588, "RA_OF_ASC_NODE": 304.266, "ARG_OF_PERICENTER": 90.2871, "MEAN_ANOMALY": 251.8506, "EPHEMERIS_TYPE": 0, "CLASSIFICATION_TYPE": "U", "NORAD_CAT_ID": 66380, "ELEMENT_SET_NO": 999, "REV_AT_EPOCH": 508, "BSTAR": -0.003047506, "MEAN_MOTION_DOT": -0.00120397, "MEAN_MOTION_DDOT": 0}, "tle": {"line1": "1 66380U 25257A   25338.33335648 -.00120397  00000+0 -30475-2 0  9994", "line2": "2 66380  53.1588 304.2660 0001821  90.2871 251.8506 15.39619757  5088"}}, "geometry": {"type": "Point", "coordinates": [-167.02786890826223, -51.38953797655158]}}, {"type": "Feature", "properties": {"norad_id": 66381, "name": "STARLINK-35158", "group": "last-30-days", "lat": -51.863607464073034, "lon": -164.15549158934292, "alt_km": 452.7153326488151, "timestamp": "2025-12-04T13:51:59.225839+00:00", "meta": {"OBJECT_NAME": "STARLINK-35158", "OBJECT_ID": "2025-257B", "EPOCH": "2025-12-04T08:00:01.999872", "MEAN_MOTION": 15.39586842, "ECCENTRICITY": 9.484e-05, "INCLINATION": 53.1588, "RA_OF_ASC_NODE": 304.2618, "ARG_OF_PERICENTER": 105.2425, "MEAN_ANOMALY": 238.7506, "EPHEMERIS_TYPE": 0, "CLASSIFICATION_TYPE": "U", "NORAD_CAT_ID": 66381, "ELEMENT_SET_NO": 999, "REV_AT_EPOCH": 514, "BSTAR": -0.00019233516, "MEAN_MOTION_DOT": -8.075e-05, "MEAN_MOTION_DDOT": 0}, "tle": {"line1": "1 66381U 25257B   25338.33335648 -.00008075  00000+0 -19234-3 0  9994", "line2": "2 66381  53.1588 304.2618 0000948 105.2425 238.7506 15.39586842  5142"}}, "geometry": {"type": "Point", "coordinates": [-164.15549158934292, -51.863607464073034]}}, {"type": "Feature", "properties": {"norad_id": 66382, "name": "STARLINK-35639", "group": "last-30-days", "lat": -51.145328002784616, "lon": -125.4765532534175, "alt_km": 452.89082702671203, "timestamp": "2025-12-04T13:51:59.225849+00:00", "meta": {"OBJECT_NAME": "STARLINK-35639", "OBJECT_ID": "2025-257C", "EPOCH": "2025-12-04T08:00:01.999872", "MEAN_MOTION": 15.39601726, "ECCENTRICITY": 0.00011075, "INCLINATION": 53.1595, "RA_OF_ASC_NODE": 304.2127, "ARG_OF_PERICENTER": 90.886, "MEAN_ANOMALY": 276.9886, "EPHEMERIS_TYPE": 0, "CLASSIFICATION_TYPE": "U", "NORAD_CAT_ID": 66382, "ELEMENT_SET_NO": 999, "REV_AT_EPOCH": 514, "BSTAR": -0.0014626957, "MEAN_MOTION_DOT": -0.00058424, "MEAN_MOTION_DDOT": 0}, "tle": {"line1": "1 66382U 25257C   25338.33335648 -.00058424  00000+0 -14627-2 0  9998", "line2": "2 66382  53.1595 304.2127 0001107  90.8860 276.9886 15.39601726  5140"}}, "geometry": {"type": "Point", "coordinates": [-125.4765532534175, -51.145328002784616]}}, {"type": "Feature", "properties": {"norad_id": 66383, "name": "STARLINK-35690", "group": "last-30-days", "lat": -38.457753799769016, "lon": -93.5359135783956, "alt_km": 452.37048154300555, "timestamp": "2025-12-04T13:51:59.225860+00:00", "meta": {"OBJECT_NAME": "STARLINK-35690", "OBJECT_ID": "2025-257D", "EPOCH": "2025-12-04T08:00:01.999872", "MEAN_MOTION": 15.39602352, "ECCENTRICITY": 0.00013591, "INCLINATION": 53.1596, "RA_OF_ASC_NODE": 304.1613, "ARG_OF_PERICENTER": 83.8571, "MEAN_ANOMALY": 309.7853, "EPHEMERIS_TYPE": 0, "CLASSIFICATION_TYPE": "U", "NORAD_CAT_ID": 66383, "ELEMENT_SET_NO": 999, "REV_AT_EPOCH": 514, "BSTAR": -0.0018783286, "MEAN_MOTION_DOT": -0.00074756, "MEAN_MOTION_DDOT": 0}, "tle": {"line1": "1 66383U 25257D   25338.33335648 -.00074756  00000+0 -18783-2 0  9992", "line2": "2 66383  53.1596 304.1613 0001359  83.8571 309.7853 15.39602352  5146"}}, "geometry": {"type": "Point", "coordinates": [-93.5359135783956, -38.457753799769016]}}, {"type": "Feature", "properties": {"norad_id": 66384, "name": "STARLINK-35662", "group": "last-30-days", "lat": -37.272623656805, "lon": -91.78339466322205, "alt_km": 452.27933866110834, "timestamp": "2025-12-04T13:51:59.225870+00:00", "meta": {"OBJECT_NAME": "STARLINK-35662", "OBJECT_ID": "2025-257E", "EPOCH": "2025-12-04T08:00:01.999872", "MEAN_MOTION": 15.3960623, "ECCENTRICITY": 0.00014953, "INCLINATION": 53.1599, "RA_OF_ASC_NODE": 304.1583, "ARG_OF_PERICENTER": 77.5828, "MEAN_ANOMALY": 317.8876, "EPHEMERIS_TYPE": 0, "CLASSIFICATION_TYPE": "U", "NORAD_CAT_ID": 66384, "ELEMENT_SET_NO": 999, "REV_AT_EPOCH": 514, "BSTAR": -0.0021971894, "MEAN_MOTION_DOT": -0.00087249, "MEAN_MOTION_DDOT": 0}, "tle": {"line1": "1 66384U 25257E   25338.33335648 -.00087249  00000+0 -21972-2 0  9998", "line2": "2 66384  53.1599 304.1583 0001495  77.5828 317.8876 15.39606230  5146"}}, "geometry": {"type": "Point", "coordinates": [-91.78339466322205, -37.272623656805]}}, {"type": "Feature", "properties": {"norad_id": 66385, "name": "STARLINK-35659", "group": "last-30-days", "lat": -50.57325086480174, "lon": -122.70680670646085, "alt_km": 452.88700963823794, "timestamp": "2025-12-04T13:51:59.225881+00:00", "meta": {"OBJECT_NAME": "STARLINK-35659", "OBJECT_ID": "2025-257F", "EPOCH": "2025-12-04T08:00:01.999872", "MEAN_MOTION": 15.39611158, "ECCENTRICITY": 0.00011938, "INCLINATION": 53.1595, "RA_OF_ASC_NODE": 304.2099, "ARG_OF_PERICENTER": 79.3366, "MEAN_ANOMALY": 290.3833, "EPHEMERIS_TYPE": 0, "CLASSIFICATION_TYPE": "U", "NORAD_CAT_ID": 66385, "ELEMENT_SET_NO": 999, "REV_AT_EPOCH": 514, "BSTAR": -0.0021519444, "MEAN_MOTION_DOT": -0.00085491, "MEAN_MOTION_DDOT": 0}, "tle": {"line1": "1 66385U 25257F   25338.33335648 -.00085491  00000+0 -21519-2 0  9993", "line2": "2 66385  53.1595 304.2099 0001193  79.3366 290.3833 15.39611158  5141"}}, "geometry": {"type": "Point", "coordinates": [-122.70680670646085, -50.57325086480174]}}]}